TECHSAT 1B (GO-32)      
1 25397U 98043D   26201.92144205  .00000025  00000+0  31066-4 0  9994
2 25397  99.0090 195.5342 0002306 105.8843 254.2589 14.24434052456137
TERRA                   
1 25994U 99068A   26201.91437725  .00000208  00000+0  51387-4 0  9997
2 25994  97.9437 250.1202 0003606 111.5815 300.9591 14.61126471414536
TERRASAR-X              
1 31698U 07026A   26201.45521513  .00000429  00000+0  23629-4 0  9999
2 31698  97.4462 208.6875 0001654  86.3294 273.8130 15.19149077 58275
THEOS                   
1 33396U 08049A   26201.92850745  .00000073  00000+0  54022-4 0  9992
2 33396  98.5549 258.1136 0001114  93.8433 266.2872 14.20137052922752
TANDEM-X                
1 36605U 10030A   26201.45521463  .00000100  00000+0  79367-5 0  9992
2 36605  97.4460 208.6898 0001899  95.3384 264.8068 15.19149380891690
SUOMI NPP               
1 37849U 11061A   26201.96232339  .00000045  00000+0  42443-4 0  9997
2 37849  98.7956 142.6089 0001041 188.0050 172.1110 14.19523455763238
SWOT                    
1 54754U 22173A   26201.85754531  .00000023  00000+0  17292-4 0  9998
2 54754  77.6117 349.8539 0000225  67.5415 292.5760 14.00172571183869
TIANMU-1 03             
1 55973U 23039A   26201.92792919  .00011177  00000+0  21457-3 0  9993
2 55973  97.5252  17.2440 0002078   5.5092 354.6180 15.48148571186058
STRIX-7                 
1 69177U 26112A   26201.90288389  .00002489  00000+0  20526-3 0  9990
2 69177  44.9085  15.3401 0025221 238.6269 121.2135 15.01633466  8945
STRIX-8                 
1 69701U 26146A   26201.72919257  .00002654  00000+0  19991-3 0  9993
2 69701  41.9905 342.4366 0006489  63.3029 296.8462 15.04462447  3615
